[{"OBJECT_NAME":"STARLINK-35669","OBJECT_ID":"2025-257S","EPOCH":"2026-03-09T16:10:08.929344","MEAN_MOTION":15.30201833,"ECCENTRICITY":9.924e-5,"INCLINATION":53.1608,"RA_OF_ASC_NODE":216.9084,"ARG_OF_PERICENTER":84.2037,"MEAN_ANOMALY":275.9077,"EPHEMERIS_TYPE":0,"CLASSIFICATION_TYPE":"U","NORAD_CAT_ID":66396,"ELEMENT_SET_NO":999,"REV_AT_EPOCH":1973,"BSTAR":0.00055291493,"MEAN_MOTION_DOT":0.00016053,"MEAN_MOTION_DDOT":0},{"OBJECT_NAME":"KUIPER-00175","OBJECT_ID":"2025-301C","EPOCH":"2026-03-09T23:30:37.840032","MEAN_MOTION":15.30996371,"ECCENTRICITY":0.00022792,"INCLINATION":51.8781,"RA_OF_ASC_NODE":63.6978,"ARG_OF_PERICENTER":50.5695,"MEAN_ANOMALY":309.549,"EPHEMERIS_TYPE":0,"CLASSIFICATION_TYPE":"U","NORAD_CAT_ID":67135,"ELEMENT_SET_NO":999,"REV_AT_EPOCH":1385,"BSTAR":0.00066732304,"MEAN_MOTION_DOT":0.00019968,"MEAN_MOTION_DDOT":0}]
